<?xml version="1.0" encoding="UTF-8"?>
<ndm xmlns:xsi="http://www.w3.org/2001/XMLSchema-instance" xsi:noNamespaceSchemaLocation="https://sanaregistry.org/r/ndmxml_unqualified/ndmxml-2.0.0-master-2.0.xsd">
<omm id="CCSDS_OMM_VERS" version="2.0">
<header><CREATION_DATE/><ORIGINATOR/></header><body><segment><metadata><OBJECT_NAME>KUIPER-00053</OBJECT_NAME><OBJECT_ID>2025-134P</OBJECT_ID><CENTER_NAME>EARTH</CENTER_NAME><REF_FRAME>TEME</REF_FRAME><TIME_SYSTEM>UTC</TIME_SYSTEM><MEAN_ELEMENT_THEORY>SGP4</MEAN_ELEMENT_THEORY></metadata><data><meanElements><EPOCH>2025-10-02T16:00:01.998720</EPOCH><MEAN_MOTION>15.10254409</MEAN_MOTION><ECCENTRICITY>.000379</ECCENTRICITY><INCLINATION>51.8886</INCLINATION><RA_OF_ASC_NODE>204.2331</RA_OF_ASC_NODE><ARG_OF_PERICENTER>110.6854</ARG_OF_PERICENTER><MEAN_ANOMALY>21.6147</MEAN_ANOMALY></meanElements><tleParameters><EPHEMERIS_TYPE>0</EPHEMERIS_TYPE><CLASSIFICATION_TYPE>U</CLASSIFICATION_TYPE><NORAD_CAT_ID>64513</NORAD_CAT_ID><ELEMENT_SET_NO>999</ELEMENT_SET_NO><REV_AT_EPOCH>568</REV_AT_EPOCH><BSTAR>-.10341E+0</BSTAR><MEAN_MOTION_DOT>-.1556859E-1</MEAN_MOTION_DOT><MEAN_MOTION_DDOT>0</MEAN_MOTION_DDOT></tleParameters></data></segment></body></omm>
<omm id="CCSDS_OMM_VERS" version="2.0">
<header><CREATION_DATE/><ORIGINATOR/></header><body><segment><metadata><OBJECT_NAME>KUIPER-00054</OBJECT_NAME><OBJECT_ID>2025-134Q</OBJECT_ID><CENTER_NAME>EARTH</CENTER_NAME><REF_FRAME>TEME</REF_FRAME><TIME_SYSTEM>UTC</TIME_SYSTEM><MEAN_ELEMENT_THEORY>SGP4</MEAN_ELEMENT_THEORY></metadata><data><meanElements><EPOCH>2025-10-02T16:00:01.998720</EPOCH><MEAN_MOTION>15.23461559</MEAN_MOTION><ECCENTRICITY>.0007382</ECCENTRICITY><INCLINATION>51.8779</INCLINATION><RA_OF_ASC_NODE>202.7327</RA_OF_ASC_NODE><ARG_OF_PERICENTER>113.7766</ARG_OF_PERICENTER><MEAN_ANOMALY>40.2956</MEAN_ANOMALY></meanElements><tleParameters><EPHEMERIS_TYPE>0</EPHEMERIS_TYPE><CLASSIFICATION_TYPE>U</CLASSIFICATION_TYPE><NORAD_CAT_ID>64514</NORAD_CAT_ID><ELEMENT_SET_NO>999</ELEMENT_SET_NO><REV_AT_EPOCH>520</REV_AT_EPOCH><BSTAR>-.23326E-1</BSTAR><MEAN_MOTION_DOT>-.526172E-2</MEAN_MOTION_DOT><MEAN_MOTION_DDOT>0</MEAN_MOTION_DDOT></tleParameters></data></segment></body></omm>
<omm id="CCSDS_OMM_VERS" version="2.0">
<header><CREATION_DATE/><ORIGINATOR/></header><body><segment><metadata><OBJECT_NAME>KUIPER-00055</OBJECT_NAME><OBJECT_ID>2025-134R</OBJECT_ID><CENTER_NAME>EARTH</CENTER_NAME><REF_FRAME>TEME</REF_FRAME><TIME_SYSTEM>UTC</TIME_SYSTEM><MEAN_ELEMENT_THEORY>SGP4</MEAN_ELEMENT_THEORY></metadata><data><meanElements><EPOCH>2025-10-02T16:00:01.998720</EPOCH><MEAN_MOTION>15.25659753</MEAN_MOTION><ECCENTRICITY>.0001191</ECCENTRICITY><INCLINATION>51.8822</INCLINATION><RA_OF_ASC_NODE>202.3274</RA_OF_ASC_NODE><ARG_OF_PERICENTER>89.2146</ARG_OF_PERICENTER><MEAN_ANOMALY>307.8627</MEAN_ANOMALY></meanElements><tleParameters><EPHEMERIS_TYPE>0</EPHEMERIS_TYPE><CLASSIFICATION_TYPE>U</CLASSIFICATION_TYPE><NORAD_CAT_ID>64515</NORAD_CAT_ID><ELEMENT_SET_NO>999</ELEMENT_SET_NO><REV_AT_EPOCH>532</REV_AT_EPOCH><BSTAR>-.36839E-1</BSTAR><MEAN_MOTION_DOT>-.873827E-2</MEAN_MOTION_DOT><MEAN_MOTION_DDOT>0</MEAN_MOTION_DDOT></tleParameters></data></segment></body></omm>
<omm id="CCSDS_OMM_VERS" version="2.0">
<header><CREATION_DATE/><ORIGINATOR/></header><body><segment><metadata><OBJECT_NAME>KUIPER-00056</OBJECT_NAME><OBJECT_ID>2025-134S</OBJECT_ID><CENTER_NAME>EARTH</CENTER_NAME><REF_FRAME>TEME</REF_FRAME><TIME_SYSTEM>UTC</TIME_SYSTEM><MEAN_ELEMENT_THEORY>SGP4</MEAN_ELEMENT_THEORY></metadata><data><meanElements><EPOCH>2025-10-02T16:00:01.998720</EPOCH><MEAN_MOTION>15.09927501</MEAN_MOTION><ECCENTRICITY>.0003897</ECCENTRICITY><INCLINATION>51.8834</INCLINATION><RA_OF_ASC_NODE>204.9111</RA_OF_ASC_NODE><ARG_OF_PERICENTER>119.7904</ARG_OF_PERICENTER><MEAN_ANOMALY>106.8590</MEAN_ANOMALY></meanElements><tleParameters><EPHEMERIS_TYPE>0</EPHEMERIS_TYPE><CLASSIFICATION_TYPE>U</CLASSIFICATION_TYPE><NORAD_CAT_ID>64516</NORAD_CAT_ID><ELEMENT_SET_NO>999</ELEMENT_SET_NO><REV_AT_EPOCH>374</REV_AT_EPOCH><BSTAR>-.11256E+0</BSTAR><MEAN_MOTION_DOT>-.1691923E-1</MEAN_MOTION_DOT><MEAN_MOTION_DDOT>0</MEAN_MOTION_DDOT></tleParameters></data></segment></body></omm>
<omm id="CCSDS_OMM_VERS" version="2.0">
<header><CREATION_DATE/><ORIGINATOR/></header><body><segment><metadata><OBJECT_NAME>KUIPER-00057</OBJECT_NAME><OBJECT_ID>2025-134T</OBJECT_ID><CENTER_NAME>EARTH</CENTER_NAME><REF_FRAME>TEME</REF_FRAME><TIME_SYSTEM>UTC</TIME_SYSTEM><MEAN_ELEMENT_THEORY>SGP4</MEAN_ELEMENT_THEORY></metadata><data><meanElements><EPOCH>2025-10-02T16:00:01.998720</EPOCH><MEAN_MOTION>14.84806560</MEAN_MOTION><ECCENTRICITY>.0009567</ECCENTRICITY><INCLINATION>51.8972</INCLINATION><RA_OF_ASC_NODE>210.4540</RA_OF_ASC_NODE><ARG_OF_PERICENTER>113.7157</ARG_OF_PERICENTER><MEAN_ANOMALY>145.8761</MEAN_ANOMALY></meanElements><tleParameters><EPHEMERIS_TYPE>0</EPHEMERIS_TYPE><CLASSIFICATION_TYPE>U</CLASSIFICATION_TYPE><NORAD_CAT_ID>64517</NORAD_CAT_ID><ELEMENT_SET_NO>999</ELEMENT_SET_NO><REV_AT_EPOCH>507</REV_AT_EPOCH><BSTAR>-.15326E+0</BSTAR><MEAN_MOTION_DOT>-.1216606E-1</MEAN_MOTION_DOT><MEAN_MOTION_DDOT>0</MEAN_MOTION_DDOT></tleParameters></data></segment></body></omm>
<omm id="CCSDS_OMM_VERS" version="2.0">
<header><CREATION_DATE/><ORIGINATOR/></header><body><segment><metadata><OBJECT_NAME>KUIPER-00058</OBJECT_NAME><OBJECT_ID>2025-134U</OBJECT_ID><CENTER_NAME>EARTH</CENTER_NAME><REF_FRAME>TEME</REF_FRAME><TIME_SYSTEM>UTC</TIME_SYSTEM><MEAN_ELEMENT_THEORY>SGP4</MEAN_ELEMENT_THEORY></metadata><data><meanElements><EPOCH>2025-10-02T16:00:01.998720</EPOCH><MEAN_MOTION>15.05890234</MEAN_MOTION><ECCENTRICITY>.000594</ECCENTRICITY><INCLINATION>51.8833</INCLINATION><RA_OF_ASC_NODE>206.0023</RA_OF_ASC_NODE><ARG_OF_PERICENTER>130.4114</ARG_OF_PERICENTER><MEAN_ANOMALY>278.0786</MEAN_ANOMALY></meanElements><tleParameters><EPHEMERIS_TYPE>0</EPHEMERIS_TYPE><CLASSIFICATION_TYPE>U</CLASSIFICATION_TYPE><NORAD_CAT_ID>64518</NORAD_CAT_ID><ELEMENT_SET_NO>999</ELEMENT_SET_NO><REV_AT_EPOCH>574</REV_AT_EPOCH><BSTAR>-.53239E-1</BSTAR><MEAN_MOTION_DOT>-.728136E-2</MEAN_MOTION_DOT><MEAN_MOTION_DDOT>0</MEAN_MOTION_DDOT></tleParameters></data></segment></body></omm>
<omm id="CCSDS_OMM_VERS" version="2.0">
<header><CREATION_DATE/><ORIGINATOR/></header><body><segment><metadata><OBJECT_NAME>KUIPER-00059</OBJECT_NAME><OBJECT_ID>2025-134V</OBJECT_ID><CENTER_NAME>EARTH</CENTER_NAME><REF_FRAME>TEME</REF_FRAME><TIME_SYSTEM>UTC</TIME_SYSTEM><MEAN_ELEMENT_THEORY>SGP4</MEAN_ELEMENT_THEORY></metadata><data><meanElements><EPOCH>2025-10-02T16:00:01.998720</EPOCH><MEAN_MOTION>15.18091384</MEAN_MOTION><ECCENTRICITY>.0000663</ECCENTRICITY><INCLINATION>51.8880</INCLINATION><RA_OF_ASC_NODE>203.4258</RA_OF_ASC_NODE><ARG_OF_PERICENTER>12.0475</ARG_OF_PERICENTER><MEAN_ANOMALY>224.1731</MEAN_ANOMALY></meanElements><tleParameters><EPHEMERIS_TYPE>0</EPHEMERIS_TYPE><CLASSIFICATION_TYPE>U</CLASSIFICATION_TYPE><NORAD_CAT_ID>64519</NORAD_CAT_ID><ELEMENT_SET_NO>999</ELEMENT_SET_NO><REV_AT_EPOCH>327</REV_AT_EPOCH><BSTAR>-.30362E-1</BSTAR><MEAN_MOTION_DOT>-.586123E-2</MEAN_MOTION_DOT><MEAN_MOTION_DDOT>0</MEAN_MOTION_DDOT></tleParameters></data></segment></body></omm>
<omm id="CCSDS_OMM_VERS" version="2.0">
<header><CREATION_DATE/><ORIGINATOR/></header><body><segment><metadata><OBJECT_NAME>KUIPER-00060</OBJECT_NAME><OBJECT_ID>2025-134W</OBJECT_ID><CENTER_NAME>EARTH</CENTER_NAME><REF_FRAME>TEME</REF_FRAME><TIME_SYSTEM>UTC</TIME_SYSTEM><MEAN_ELEMENT_THEORY>SGP4</MEAN_ELEMENT_THEORY></metadata><data><meanElements><EPOCH>2025-10-02T16:00:01.998720</EPOCH><MEAN_MOTION>15.15958500</MEAN_MOTION><ECCENTRICITY>.0002669</ECCENTRICITY><INCLINATION>51.8812</INCLINATION><RA_OF_ASC_NODE>203.4973</RA_OF_ASC_NODE><ARG_OF_PERICENTER>133.6243</ARG_OF_PERICENTER><MEAN_ANOMALY>358.3656</MEAN_ANOMALY></meanElements><tleParameters><EPHEMERIS_TYPE>0</EPHEMERIS_TYPE><CLASSIFICATION_TYPE>U</CLASSIFICATION_TYPE><NORAD_CAT_ID>64520</NORAD_CAT_ID><ELEMENT_SET_NO>999</ELEMENT_SET_NO><REV_AT_EPOCH>485</REV_AT_EPOCH><BSTAR>-.88621E-1</BSTAR><MEAN_MOTION_DOT>-.1565993E-1</MEAN_MOTION_DOT><MEAN_MOTION_DDOT>0</MEAN_MOTION_DDOT></tleParameters></data></segment></body></omm>

</ndm>
