KUIPER-00053            
1 64513U 25134P   25275.66668980 -.01556859  00000+0 -10341+0 0  9992
2 64513  51.8886 204.2331 0003790 110.6854  21.6147 15.10254409  5687
KUIPER-00054            
1 64514U 25134Q   25275.66668980 -.00526172  00000+0 -23326-1 0  9996
2 64514  51.8779 202.7327 0007382 113.7766  40.2956 15.23461559  5207
KUIPER-00055            
1 64515U 25134R   25275.66668980 -.00873827  00000+0 -36839-1 0  9992
2 64515  51.8822 202.3274 0001191  89.2146 307.8627 15.25659753  5322
KUIPER-00056            
1 64516U 25134S   25275.66668980 -.01691923  00000+0 -11256+0 0  9993
2 64516  51.8834 204.9111 0003897 119.7904 106.8590 15.09927501  3741
KUIPER-00057            
1 64517U 25134T   25275.66668980 -.01216606  00000+0 -15326+0 0  9997
2 64517  51.8972 210.4540 0009567 113.7157 145.8761 14.84806560  5071
KUIPER-00058            
1 64518U 25134U   25275.66668980 -.00728136  00000+0 -53239-1 0  9990
2 64518  51.8833 206.0023 0005940 130.4114 278.0786 15.05890234  5740
KUIPER-00059            
1 64519U 25134V   25275.66668980 -.00586123  00000+0 -30362-1 0  9991
2 64519  51.8880 203.4258 0000663  12.0475 224.1731 15.18091384  3277
KUIPER-00060            
1 64520U 25134W   25275.66668980 -.01565993  00000+0 -88621-1 0  9997
2 64520  51.8812 203.4973 0002669 133.6243 358.3656 15.15958500  4859
